XRISM                   
1 57800U 23137A   24273.56452668  .00013484  00000+0  96967-3 0  9995
2 57800  31.0033  67.3903 0009008 160.2382 199.8605 15.03049887 58319
